COSMOS 1892             
1 18421U 87088A   21227.41883222  .00000578  00000-0  26918-4 0  9991
2 18421  82.4990 213.7592 0015860  38.8355 321.4015 15.17754307848849
SL-14 R/B               
1 18749U 88001B   21227.54075877  .00000077  00000-0  65099-5 0  9991
2 18749  82.5163 320.2012 0018265 345.3491  25.1953 14.83269547794731
COSMOS 1933             
1 18958U 88020A   21227.57602363  .00000322  00000-0  21237-4 0  9991
2 18958  82.5270  75.9736 0012361 141.2998 218.9116 15.03969404798824
SL-3 R/B                
1 19046U 88032B   21227.52607374 -.00000404  00000-0 -25301-4 0  9994
2 19046  97.3858 235.3482 0036237 199.8488 160.1331 15.02970797800658
SL-16 R/B               
1 19120U 88039B   21227.56188991 -.00000186  00000-0 -65798-4 0  9998
2 19120  71.0169 352.3537 0021458  11.0395 349.1196 14.19225099721821
COSMOS 1953             
1 19210U 88050A   21227.44588416  .00001030  00000-0  67909-4 0  9997
2 19210  82.5191 358.1592 0014183 108.0671 252.2102 15.06342271785481
SL-8 R/B                
1 19257U 88053B   21227.54848553  .00000040  00000-0  22074-4 0  9997
2 19257  74.0493 301.1533 0020235 178.5138 283.7131 14.37528120736941
COSMOS 1975             
1 19573U 88093A   21227.53039492  .00000455  00000-0  29775-4 0  9990
2 19573  82.5218 313.3138 0014793 152.5814 207.6196 15.05241485767258
SL-14 R/B               
1 19574U 88093B   21227.33213788  .00000086  00000-0  75089-5 0  9991
2 19574  82.5343 163.6717 0022529 140.9651 334.0410 14.83380339753709
SL-16 R/B               
1 19650U 88102B   21227.54168237 -.00000177  00000-0 -65800-4 0  9990
2 19650  70.9997  58.1325 0013471  19.8562 340.3082 14.15810116690907
INTERCOSMOS 24          
1 20261U 89080A   21227.38317862 -.00000168  00000-0 -55891-4 0  9997
2 20261  82.6024 105.9391 1202222 189.5227 168.1094 12.56212010457227
SL-14 R/B               
1 20262U 89080C   21227.50830701  .00000110  00000-0  26124-4 0  9996
2 20262  82.5960 162.3120 1237827  30.2809 336.4234 12.48977169451921
DELTA 2 R/B(1)          
1 20303U 89085B   21227.41377230  .00002953  00000-0  90897-4 0  9995
2 20303  35.6420 223.1316 0089369 350.5859   9.3194 15.29612551733509
DELTA 1 R/B             
1 20323U 89089B   21227.46690188  .00000023  00000-0  15182-4 0  9996
2 20323  97.1215 312.5890 0071018 338.4836  21.3379 14.48412647654244
ARIANE 40 R/B           
1 20443U 90005H   21227.43754720  .00000008  00000-0  17103-4 0  9997
2 20443  98.5249 293.2665 0011020 153.8115 206.3631 14.38138571653054
DELTA 2 R/B(1)          
1 20453U 90008B   21227.42511101  .00001492  00000-0  82989-4 0  9996
2 20453  35.6253 274.1737 0276977 247.2015 109.9219 14.86743521674302
COSMOS 2058             
1 20465U 90010A   21227.51079331  .00000185  00000-0  13270-4 0  9991
2 20465  82.4873 225.2130 0014584 206.1032 153.9457 14.98252006691818
SL-14 R/B               
1 20466U 90010B   21227.52407494  .00000076  00000-0  66545-5 0  9991
2 20466  82.5027  29.8910 0021189  28.3150 331.9210 14.81433279681515
SL-14 R/B               
1 20511U 90018B   21227.42196421  .00000071  00000-0  63082-5 0  9992
2 20511  82.5259 338.2674 0017898 162.6731 266.4537 14.80087586675822
HST                     
1 20580U 90037B   21227.54045696  .00000508  00000-0  19737-4 0  9991
2 20580  28.4709  34.1004 0002653 343.3872  51.8055 15.09704411519950
SL-16 R/B               
1 20625U 90046B   21227.54893728 -.00000182  00000-0 -69583-4 0  9992
2 20625  70.9973 198.0263 0015947 311.5703  48.4051 14.14667219612593
COSMOS 2084             
1 20663U 90055A   21227.31808565  .00000096  00000-0  27142-4 0  9991
2 20663  62.7931 192.7230 0079088  15.0306 345.3111 14.92284069686607
SL-6 R/B(2)             
1 20666U 90055D   21227.36709669  .00000050  00000-0  22549-4 0  9990
2 20666  62.7846 107.9120 0105534  41.3927 319.5102 14.92537776688564
SL-8 R/B                
1 20775U 90078B   21227.55009901  .00002485  00000-0  12009-3 0  9992
2 20775  82.9239 236.4417 0564873 319.3769  36.6528 14.36232248566578
SL-8 R/B                
1 21088U 91006B   21227.53188573  .00000040  00000-0  24667-4 0  9992
2 21088  82.9454 329.9218 0023072  27.2413 343.4346 13.77175461534584
OKEAN-3                 
1 21397U 91039A   21227.48206934  .00000193  00000-0  15942-4 0  9992
2 21397  82.5232 133.5915 0017399 185.3866 174.7171 14.93138458615511
COSMOS 2151             
1 21422U 91042A   21227.52499444  .00000171  00000-0  14294-4 0  9995
2 21422  82.4980 239.1498 0012582 254.4021 105.5810 14.92282263614051
SL-14 R/B               
1 21423U 91042B   21227.56088146  .00000072  00000-0  65726-5 0  9990
2 21423  82.4966 340.5135 0016426 313.3004  46.6838 14.79836858606380
ERS-1                   
1 21574U 91050A   21227.50936411  .00000030  00000-0  24589-4 0  9992
2 21574  98.6518 188.3954 0034082 105.8274 254.6674 14.37809128576050
ARIANE 40 R/B           
1 21610U 91050F   21227.46664955  .00000002  00000-0  14154-4 0  9995
2 21610  98.4200 297.3284 0004374  75.0045 297.8087 14.40959367578761
INTERCOSMOS 25          
1 21819U 91086A   21227.46182097  .00000390  00000-0  70509-4 0  9993
2 21819  82.5781 232.1824 1517227  88.3659 288.9967 12.05274427295368
SL-8 R/B                
1 21876U 92008B   21227.55485859 -.00000029  00000-0 -45723-4 0  9994
2 21876  82.9235  67.2016 0036016 109.1730 309.1184 13.75683126480183
SL-8 R/B                
1 21938U 92020B   21227.53025502  .00000018  00000-0  33470-5 0  9993
2 21938  82.9319 311.7202 0027827 270.2099 100.6664 13.75292349471963
COSMOS 2219             
1 22219U 92076A   21227.49356121  .00000286  00000-0  17606-3 0  9994
2 22219  71.0576 261.8847 0019675 230.3455 129.5932 14.13661945482735
SL-16 R/B               
1 22220U 92076B   21227.38051111 -.00000153  00000-0 -53049-4 0  9992
2 22220  70.9998  99.1862 0010921 121.4340  51.5404 14.16471461485703
COSMOS 2221             
1 22236U 92080A   21227.54468967  .00000167  00000-0  15484-4 0  9997
2 22236  82.5056  62.8864 0016570 359.3201   0.7990 14.88083919532331
SL-16 R/B               
1 22285U 92093B   21227.51059780 -.00000067  00000-0 -10112-4 0  9995
2 22285  71.0190 262.8724 0005676 310.1426  49.9199 14.15060291477289
COSMOS 2228             
1 22286U 92094A   21227.50148644  .00000200  00000-0  18810-4 0  9994
2 22286  82.5205  19.6674 0022551 111.2096 249.1534 14.88308848527512
SL-16 R/B               
1 22566U 93016B   21227.42051980 -.00000114  00000-0 -34280-4 0  9992
2 22566  71.0085 115.8003 0011527 329.7482  30.2974 14.14978457466307
COSMOS 2242             
1 22626U 93024A   21227.58853119  .00000195  00000-0  18301-4 0  9992
2 22626  82.5201  47.8907 0020333 110.8953 249.4444 14.88159083531918
SL-16 R/B               
1 22803U 93059B   21227.57383017 -.00000066  00000-0 -89705-5 0  9997
2 22803  70.9894 285.4592 0019058 234.5561 125.3784 14.16838872443377
ARIANE 40 R/B           
1 22830U 93061H   21227.44526602 -.00000031  00000-0  52744-5 0  9999
2 22830  98.7092 285.1859 0011499 153.5773 206.5998 14.31487848455488
COSMOS 2278             
1 23087U 94023A   21227.54571021 -.00000244  00000-0 -10378-3 0  9991
2 23087  71.0540  61.2126 0007237  40.3908 319.7750 14.13836409409138
SL-16 R/B               
1 23088U 94023B   21227.57966255 -.00000264  00000-0 -11249-3 0  9992
2 23088  71.0023 330.9039 0005554 294.8729  65.1816 14.14693478410293
SL-16 R/B               
1 23343U 94074B   21227.59152407  .00000017  00000-0  96829-5 0  9993
2 23343  97.9414 281.3079 0005999 214.1009 305.0771 14.76894325441012
SL-16 R/B               
1 23405U 94077B   21227.50030408 -.00000094  00000-0 -23667-4 0  9998
2 23405  70.9803 258.8379 0003373 218.6712 141.4170 14.15239254380339
ERS-2                   
1 23560U 95021A   21227.55482179  .00000857  00000-0  39009-4 0  9993
2 23560  98.5425  85.8931 0003863 147.2138 212.9337 15.24110409406690
ARIANE 40+ R/B          
1 23561U 95021B   21227.39900589  .00000010  00000-0  18114-4 0  9991
2 23561  98.6701 277.7598 0008096  79.1523 291.5536 14.38039857379508
SL-16 R/B               
1 23705U 95058B   21227.55810205  .00000257  00000-0  15667-3 0  9996
2 23705  71.0214  79.1187 0011374 148.6043 211.5761 14.15149951331975
SL-16 R/B               
1 24298U 96051B   21227.36405544 -.00000176  00000-0 -68835-4 0  9991
2 24298  70.8262  96.6840 0013248  83.8548 276.4081 14.12426539286213
ORBVIEW 2 (SEASTAR)     
1 24883U 97037A   21227.33462053  .00000054  00000-0  35520-4 0  9999
2 24883  98.6483 345.3535 0001308 309.9889  50.1181 14.33627652269441
SL-16 R/B               
1 25400U 98043G   21227.53474491 -.00000013  00000-0  12773-4 0  9995
2 25400  98.6408 162.5171 0009930 173.1067 187.0251 14.25480412201432
SL-16 R/B               
1 25407U 98045B   21227.52852982 -.00000244  00000-0 -99979-4 0  9998
2 25407  71.0107  86.3381 0006106  32.0702 328.0791 14.15839458191102
ISS (ZARYA)             
1 25544U 98067A   21227.52740622  .00001164  00000-0  29348-4 0  9994
2 25544  51.6441  49.2715 0001279 311.5925 145.1719 15.48903652297791
CZ-4B R/B               
1 25732U 99025C   21227.57953845 -.00000029  00000-0  74517-5 0  9995
2 25732  98.8984 264.1561 0038412  81.4409  32.1793 14.17697516151915
OKEAN-O                 
1 25860U 99039A   21227.54768659  .00000020  00000-0  10439-4 0  9998
2 25860  98.1795 259.0933 0001037  70.4251 289.7070 14.76752586188105
SL-16 R/B               
1 25861U 99039B   21227.57555774  .00000006  00000-0  82885-5 0  9993
2 25861  98.2033 244.0873 0014518 232.8282 239.5952 14.78655825190290
DELTA 2 R/B             
1 25876U 99041E   21226.97155741  .00000025  00000-0  45633-4 0  9995
2 25876  51.7639  78.2093 0531717 139.3800 224.8088 14.04601908128149
HELIOS 1B               
1 25977U 99064A   21227.48356590  .00000043  00000-0  12564-4 0  9991
2 25977  98.3205  44.3366 0002438  74.9056 285.2425 14.82573823437941
